HORYU-4                 
1 41340U 16012D   21102.68880382  .00000673  00000-0  43658-4 0  9997
2 41340  31.0044 225.7519 0013835 240.3398 119.5860 15.01823357282890
OUFTI-1                 
1 41458U 16025C   21102.57948606  .00001931  00000-0  97758-4 0  9991
2 41458  98.1329 235.7720 0158023 281.9111  76.4436 15.08253782272545
E-ST@R-II               
1 41459U 16025D   21102.85384485  .00000622  00000-0  35031-4 0  9994
2 41459  98.1287 235.1987 0159766 283.6964  74.6528 15.07703148272534
AAUSAT 4                
1 41460U 16025E   21102.81490689  .00002295  00000-0  11166-3 0  9996
2 41460  98.1287 238.7097 0147118 268.5156  89.9210 15.10597691272805
AIST-2D (RS-48)         
1 41465U 16026B   21102.87265977  .00001891  00000-0  56172-4 0  9996
2 41465  97.1164 349.2077 0009313 248.4132 242.1095 15.35956728277361
SAMSAT-218D             
1 41466U 16026C   21102.81643696  .00013163  00000-0  21105-3 0  9991
2 41466  97.1616  11.2411 0005394 153.7392 247.1379 15.53186604278643
NUSAT-1 (FRESCO)        
1 41557U 16033B   21102.84524146  .00001929  00000-0  70653-4 0  9991
2 41557  97.3911 197.1735 0014668 106.1889  36.5519 15.29166021271502
NUSAT-2 (BATATA)        
1 41558U 16033C   21102.86647394  .00001885  00000-0  64835-4 0  9991
2 41558  97.4009 200.7142 0013744 101.0804  20.7691 15.31262517271685
CARTOSAT-2C             
1 41599U 16040A   21102.85659584  .00000397  00000-0  21992-4 0  9991
2 41599  97.4069 163.4995 0012451 242.7381 206.0288 15.19293512266550
SATHYABAMASAT           
1 41600U 16040B   21102.44184087  .00002183  00000-0  87944-4 0  9994
2 41600  97.2795 161.3768 0012420 204.1479 155.9179 15.25836360267089
LAPAN-A3                
1 41603U 16040E   21102.82613492  .00000105  00000-0  79435-5 0  9995
2 41603  97.2647 152.2212 0011961 228.5982 220.1196 15.19996186266617
BIROS                   
1 41604U 16040F   21102.21732227  .00000628  00000-0  30031-4 0  9995
2 41604  97.2706 156.8416 0011345 206.9138 153.1511 15.22468372266823
SWAYAM                  
1 41607U 16040J   21102.71470016  .00002095  00000-0  85333-4 0  9993
2 41607  97.2747 160.5100 0012037 202.8053 157.2652 15.25510376267022
BEESAT-4                
1 41619U 16040W   21102.46623552  .00001937  00000-0  79894-4 0  9992
2 41619  97.2769 160.3931 0010268 195.5531 164.5393 15.25198515254950
3CAT-2                  
1 41732U 16051B   21102.73882233  .00001592  00000-0  59701-4 0  9995
2 41732  97.3768  23.5901 0014005  26.2170  30.0276 15.28641378259466
PRATHAM                 
1 41783U 16059A   21102.40272865  .00000072  00000-0  22891-4 0  9999
2 41783  97.9722 154.7459 0034963  94.3566 266.1633 14.63126583242592
ALSAT 1N                
1 41789U 16059G   21102.77569059  .00000097  00000-0  27114-4 0  9999
2 41789  97.9761 158.6380 0029713  79.4873 280.9665 14.64406172242831
LISHUI 1-01             
1 41845U 16066E   21102.76384869  .00002985  00000-0  39477-3 0  9995
2 41845  98.7280 202.7491 0269209 322.6350  35.6385 14.58728257233829
CARTOSAT-2D             
1 41948U 17008A   21102.41429027  .00000684  00000-0  35723-4 0  9999
2 41948  97.4489 163.6695 0008495  41.1471 319.0410 15.19217405230355
NAYIF-1 (EO-88)         
1 42017U 17008BX  21102.41983462  .00002153  00000-0  81903-4 0  9999
2 42017  97.3211 171.1988 0005562   0.4191 359.7052 15.27827573231179
ZHUHAI-1 02 (CAS-4B)    
1 42759U 17034B   21102.69239403  .00000390  00000-0  36856-4 0  9998
2 42759  43.0168 182.5966 0007721 113.0086  23.5364 15.10150036211205
ZHUHAI-1 01 (CAS-4A)    
1 42761U 17034D   21102.68620227  .00000405  00000-0  37640-4 0  9997
2 42761  43.0173 181.7315 0008086 114.2546  17.8854 15.10231469211202
UCLSAT                  
1 42765U 17036A   21102.56753597  .00001725  00000-0  72688-4 0  9994
2 42765  97.2575 154.1934 0012340  56.6654 303.5763 15.24585130212130
NIUSAT                  
1 42766U 17036B   21102.20316869  .00001315  00000-0  59470-4 0  9992
2 42766  97.2582 150.4575 0016454  53.7718 306.5037 15.22520034211134
CARTOSAT-2E             
1 42767U 17036C   21102.77906910  .00001473  00000-0  73223-4 0  9994
2 42767  97.5119 162.1911 0010194  80.3261  52.2707 15.19196336210972
LITUANICASAT-2          
1 42768U 17036D   21102.57651921  .00003040  00000-0  12126-3 0  9998
2 42768  97.2647 154.8052 0014949  45.6043 314.6417 15.25830543211420
AALTO-1                 
1 42775U 17036L   21102.43740393  .00001107  00000-0  50566-4 0  9996
2 42775  97.2551 150.9633 0014913  52.5500 307.7091 15.22508023211153
URSA MAIOR              
1 42776U 17036M   21102.58233495  .00001187  00000-0  53624-4 0  9999
2 42776  97.2564 151.5320 0014681  51.7026 308.5529 15.22755118211192
COMPASS 2               
1 42777U 17036N   21102.39446477  .00002379  00000-0  97001-4 0  9996
2 42777  97.2629 154.8590 0012909  48.5836 311.6509 15.25323969211342
MAX VALIER SAT          
1 42778U 17036P   21102.36128499  .00001306  00000-0  57675-4 0  9997
2 42778  97.2629 153.1191 0013310  55.4362 304.8129 15.23397966211225
PEGASUS                 
1 42784U 17036V   21102.52942085  .00001601  00000-0  68463-4 0  9992
2 42784  97.2584 153.7145 0012942  57.9061 302.3432 15.24180362211311
NUDTSAT                 
1 42787U 17036Y   21102.61670523  .00002538  00000-0  10136-3 0  9993
2 42787  97.2625 155.9914 0012345  50.3811 309.8516 15.25980551211296
SUCHAI                  
1 42788U 17036Z   21102.56159717  .00001920  00000-0  79809-4 0  9992
2 42788  97.2593 154.6502 0012385  55.7586 304.4823 15.24918072211449
SKCUBE                  
1 42789U 17036AA  21102.57982264  .00001777  00000-0  74603-4 0  9992
2 42789  97.2586 154.4110 0012314  56.2245 304.0164 15.24677796211354
VZLUSAT-1               
1 42790U 17036AB  21102.21636359  .00002316  00000-0  92794-4 0  9997
2 42790  97.2615 155.5936 0011579  54.4930 305.7387 15.25956239211381
ROBUSTA-1B              
1 42792U 17036AD  21102.09936374  .00001693  00000-0  70715-4 0  9991
2 42792  97.2589 154.2991 0011923  57.9474 302.2920 15.24905974211311
D-SAT                   
1 42794U 17036AF  21102.81569692  .00000529  00000-0  50391-4 0  9993
2 42794  97.4669 126.1772 0127310  85.3966 276.1782 14.91507039207311
NORSAT 2                
1 42828U 17042D   21102.56821534  .00000288  00000-0  33719-4 0  9993
2 42828  97.4872 336.8674 0014718  11.8997 348.2567 14.91790169203913
TECHNOSAT               
1 42829U 17042E   21102.69770107  .00000103  00000-0  15576-4 0  9994
2 42829  97.4791 335.6930 0014530  13.2855 346.8744 14.91251790203886
2017-042F               
1 42830U 17042F   21102.65241641  .00000921  00000-0  94205-4 0  9992
2 42830  97.4904 338.0255 0014394   6.3445 353.7954 14.92750807203982
FLYING LAPTOP           
1 42831U 17042G   21102.80588030  .00000736  00000-0  79132-4 0  9992
2 42831  97.4814 336.0024 0014225  13.3847 346.7758 14.91271963203908
CORVUS BC2              
1 42846U 17042X   21102.58637370  .00000317  00000-0  36174-4 0  9999
2 42846  97.4827 337.9424 0009765   8.5536 351.5849 14.92262735204012
CORVUS BC1              
1 42847U 17042Y   21102.89690578  .00000023  00000-0  74324-5 0  9997
2 42847  97.4829 338.4630 0009355   7.1091 353.0259 14.92365723204064
SIMPL                   
1 42983U 98067NF  21102.74038617  .00008384  00000-0  86810-4 0  9998
2 42983  51.6369 232.9917 0003334  98.0811 262.0563 15.65668964197109
CZ-4C R/B               
1 43012U 17072C   21102.52535344  .00000063  00000-0  24727-4 0  9999
2 43012  98.7327 114.1204 0127242 193.7488 166.0231 14.56158663181148
RADFXSAT (FOX-1B)       
1 43017U 17073E   21102.73090219  .00000540  00000-0  46703-4 0  9993
2 43017  97.7116   9.3169 0255926 154.4971 206.9131 14.79423459183402
EAGLESAT 1              
1 43018U 17073F   21102.47274181  .00000950  00000-0  76881-4 0  9992
2 43018  97.7120   9.8508 0252764 152.3205 209.1732 14.80399488183288
ECAMSAT                 
1 43019U 98067NG  21102.74679107  .00023208  00000-0  15098-3 0  9995
2 43019  51.6376 203.8538 0002454  65.1210 295.0045 15.75829388279814
INS-1C                  
1 43116U 18004F   21102.64062213  .00001675  00000-0  70144-4 0  9997
2 43116  97.4175 177.7379 0010715  77.2207 283.0228 15.24896739180615
FLOCK 3P'-3             
1 43119U 18004J   21102.56685629  .00001162  00000-0  50733-4 0  9996
2 43119  97.4164 176.6568 0011687  84.7123 275.5447 15.24084536180548
FLOCK 3P'-2             
1 43120U 18004K   21102.46330211  .00000994  00000-0  44194-4 0  9997
2 43120  97.4170 176.3778 0011705  85.5096 274.7478 15.23786034180519
FLOCK 3P'-1             
1 43121U 18004L   21102.42554946  .00003515  00000-0  13704-3 0  9991
2 43121  97.4168 177.9136 0010689  80.7859 279.4588 15.26568218180548
FLOCK 3P'-4             
1 43122U 18004M   21102.45996531  .00000953  00000-0  42455-4 0  9994
2 43122  97.4179 176.4699 0011525  87.2118 273.0438 15.23814128180511
MICROMAS-2A             
1 43131U 18004W   21102.46884307  .00002969  00000-0  11493-3 0  9998
2 43131  97.4147 178.8206 0010144  80.1927 280.0456 15.26936445180699
PICSAT                  
1 43132U 18004X   21102.47419304  .00001781  00000-0  72916-4 0  9990
2 43132  97.4125 177.6108 0010827  83.3443 276.9027 15.25581630180622
CNUSAIL-1               
1 43133U 18004Y   21102.45984685  .00001362  00000-0  58003-4 0  9994
2 43133  97.4103 176.7275 0010981  85.1002 275.1489 15.24647243180575
2018-004Z               
1 43134U 18004Z   21102.50796367  .00001641  00000-0  68125-4 0  9995
2 43134  97.4119 177.3764 0010704  84.3358 275.9100 15.25215200180619
FOX-1D (AO-92)          
1 43137U 18004AC  21102.46119699  .00001505  00000-0  63100-4 0  9997
2 43137  97.4105 177.1640 0010548  85.6909 274.5534 15.25025066180604
STEP CUBE LAB           
1 43138U 18004AD  21102.44423463  .00002447  00000-0  96219-4 0  9996
2 43138  97.4145 178.6830 0010178  83.9406 276.2992 15.26577789180688
